[
    {
        "Altitude(m)": 604221.22858349,
        "Argument of Periapsis(deg)": 0.0,
        "Eccentricity": 0.0,
        "Inclination(deg)": 60.0,
        "Latitude(deg)": 14.117384179200045,
        "Longitude(deg)": 83.33414282128209,
        "Mean Anomaly(deg)": 16.363600000000012,
        "RAAN(deg)": 175.0,
        "Satellite Name": "Test1 771",
        "Satellite Number": 771,
        "Semi-Major Axis(m)": 6980739.136638005,
        "Time(s)": 0
    },
    {
        "Altitude(m)": 604235.3703750826,
        "Argument of Periapsis(deg)": 0.00010418945913296404,
        "Eccentricity": 0.0,
        "Inclination(deg)": 60.0,
        "Latitude(deg)": 14.651781155986502,
        "Longitude(deg)": 83.6225895116708,
        "Mean Anomaly(deg)": 16.983706145461838,
        "RAAN(deg)": 174.99957995086024,
        "Satellite Name": "Test1 771",
        "Satellite Number": 771,
        "Semi-Major Axis(m)": 6980739.136638005,
        "Time(s)": 10
    }
]